[{"OBJECT_NAME":"ONEWEB-0299","OBJECT_ID":"2021-075P","EPOCH":"2026-03-09T20:51:33.867072","MEAN_MOTION":13.17648834,"ECCENTRICITY":0.00018158,"INCLINATION":87.9164,"RA_OF_ASC_NODE":25.5602,"ARG_OF_PERICENTER":75.6996,"MEAN_ANOMALY":284.4338,"EPHEMERIS_TYPE":0,"CLASSIFICATION_TYPE":"U","NORAD_CAT_ID":49088,"ELEMENT_SET_NO":999,"REV_AT_EPOCH":22052,"BSTAR":-0.00032614039,"MEAN_MOTION_DOT":-1.14e-6,"MEAN_MOTION_DDOT":0},{"OBJECT_NAME":"NOAA 16 DEB","OBJECT_ID":"2000-055AM","EPOCH":"2026-03-09T06:40:45.212448","MEAN_MOTION":13.58382699,"ECCENTRICITY":0.02875785,"INCLINATION":98.9178,"RA_OF_ASC_NODE":193.3537,"ARG_OF_PERICENTER":275.2209,"MEAN_ANOMALY":81.618,"EPHEMERIS_TYPE":0,"CLASSIFICATION_TYPE":"U","NORAD_CAT_ID":41078,"ELEMENT_SET_NO":999,"REV_AT_EPOCH":50920,"BSTAR":0.0005870733,"MEAN_MOTION_DOT":5.18e-6,"MEAN_MOTION_DDOT":0}]
